[
    {
        "Altitude(m)": 611967.1576605128,
        "Argument of Periapsis(deg)": 0.0,
        "Eccentricity": 0.0,
        "Inclination(deg)": 60.0,
        "Latitude(deg)": 59.14009709645151,
        "Longitude(deg)": -138.90778657324603,
        "Mean Anomaly(deg)": 98.18179999999998,
        "RAAN(deg)": 215.0,
        "Satellite Name": "Test1 952",
        "Satellite Number": 952,
        "Semi-Major Axis(m)": 6980739.136638005,
        "Time(s)": 0
    },
    {
        "Altitude(m)": 611934.3568610814,
        "Argument of Periapsis(deg)": 0.00010418945913296404,
        "Eccentricity": 0.0,
        "Inclination(deg)": 60.0,
        "Latitude(deg)": 58.98645746129037,
        "Longitude(deg)": -137.7845439112667,
        "Mean Anomaly(deg)": 98.80190614546179,
        "RAAN(deg)": 214.99957995086024,
        "Satellite Name": "Test1 952",
        "Satellite Number": 952,
        "Semi-Major Axis(m)": 6980739.136638005,
        "Time(s)": 10
    },
    {
        "Altitude(m)": 611899.2514299415,
        "Argument of Periapsis(deg)": 0.0002083789182659281,
        "Eccentricity": 0.0,
        "Inclination(deg)": 60.0,
        "Latitude(deg)": 58.82243975816138,
        "Longitude(deg)": -136.6719666364268,
        "Mean Anomaly(deg)": 99.42201229092362,
        "RAAN(deg)": 214.99915990172053,
        "Satellite Name": "Test1 952",
        "Satellite Number": 952,
        "Semi-Major Axis(m)": 6980739.136638005,
        "Time(s)": 20
    },
    {
        "Altitude(m)": 611861.8616017556,
        "Argument of Periapsis(deg)": 0.00031256837739889213,
        "Eccentricity": 0.0,
        "Inclination(deg)": 60.0,
        "Latitude(deg)": 58.64820703726211,
        "Longitude(deg)": -135.57056653476778,
        "Mean Anomaly(deg)": 100.04211843638548,
        "RAAN(deg)": 214.99873985258077,
        "Satellite Name": "Test1 952",
        "Satellite Number": 952,
        "Semi-Major Axis(m)": 6980739.136638005,
        "Time(s)": 30
    },
    {
        "Altitude(m)": 611822.2089370165,
        "Argument of Periapsis(deg)": 0.0004167578365318562,
        "Eccentricity": 0.0,
        "Inclination(deg)": 60.0,
        "Latitude(deg)": 58.46392879762013,
        "Longitude(deg)": -134.48081464373442,
        "Mean Anomaly(deg)": 100.6622245818473,
        "RAAN(deg)": 214.99831980344103,
        "Satellite Name": "Test1 952",
        "Satellite Number": 952,
        "Semi-Major Axis(m)": 6980739.136638005,
        "Time(s)": 40
    },
    {
        "Altitude(m)": 611780.3163118357,
        "Argument of Periapsis(deg)": 0.0005209472956648203,
        "Eccentricity": 0.0,
        "Inclination(deg)": 60.0,
        "Latitude(deg)": 58.26978027057918,
        "Longitude(deg)": -133.40314202853588,
        "Mean Anomaly(deg)": 101.28233072730914,
        "RAAN(deg)": 214.99789975430127,
        "Satellite Name": "Test1 952",
        "Satellite Number": 952,
        "Semi-Major Axis(m)": 6980739.136638005,
        "Time(s)": 50
    },
    {
        "Altitude(m)": 611736.2079071414,
        "Argument of Periapsis(deg)": 0.0006251367547977843,
        "Eccentricity": 0.0,
        "Inclination(deg)": 60.0,
        "Latitude(deg)": 58.065941709741224,
        "Longitude(deg)": -132.33793933563294,
        "Mean Anomaly(deg)": 101.90243687277098,
        "RAAN(deg)": 214.99747970516157,
        "Satellite Name": "Test1 952",
        "Satellite Number": 952,
        "Semi-Major Axis(m)": 6980739.136638005,
        "Time(s)": 60
    },
    {
        "Altitude(m)": 611689.9091972202,
        "Argument of Periapsis(deg)": 0.0007293262139307483,
        "Eccentricity": 0.0,
        "Inclination(deg)": 60.0,
        "Latitude(deg)": 57.85259769274898,
        "Longitude(deg)": -131.2855566159883,
        "Mean Anomaly(deg)": 102.52254301823284,
        "RAAN(deg)": 214.9970596560218,
        "Satellite Name": "Test1 952",
        "Satellite Number": 952,
        "Semi-Major Axis(m)": 6980739.136638005,
        "Time(s)": 70
    },
    {
        "Altitude(m)": 611641.4469376631,
        "Argument of Periapsis(deg)": 0.0008335156730637124,
        "Eccentricity": 0.0,
        "Inclination(deg)": 60.0,
        "Latitude(deg)": 57.62993643975317,
        "Longitude(deg)": -130.24630490856492,
        "Mean Anomaly(deg)": 103.14264916369467,
        "RAAN(deg)": 214.99663960688207,
        "Satellite Name": "Test1 952",
        "Satellite Number": 952,
        "Semi-Major Axis(m)": 6980739.136638005,
        "Time(s)": 80
    },
    {
        "Altitude(m)": 611590.8491526899,
        "Argument of Periapsis(deg)": 0.0009377051321966765,
        "Eccentricity": 0.0,
        "Inclination(deg)": 60.0,
        "Latitude(deg)": 57.39814915283074,
        "Longitude(deg)": -129.22045653440344,
        "Mean Anomaly(deg)": 103.76275530915647,
        "RAAN(deg)": 214.9962195577423,
        "Satellite Name": "Test1 952",
        "Satellite Number": 952,
        "Semi-Major Axis(m)": 6980739.136638005,
        "Time(s)": 90
    },
    {
        "Altitude(m)": 611538.1451218585,
        "Argument of Periapsis(deg)": 0.0010418945913296407,
        "Eccentricity": 0.0,
        "Inclination(deg)": 60.0,
        "Latitude(deg)": 57.157429380042714,
        "Longitude(deg)": -128.20824558925906,
        "Mean Anomaly(deg)": 104.3828614546183,
        "RAAN(deg)": 214.9957995086026,
        "Satellite Name": "Test1 952",
        "Satellite Number": 952,
        "Semi-Major Axis(m)": 6980739.136638005,
        "Time(s)": 100
    },
    {
        "Altitude(m)": 611483.3653661814,
        "Argument of Periapsis(deg)": 0.0011460840504626045,
        "Eccentricity": 0.0,
        "Inclination(deg)": 60.0,
        "Latitude(deg)": 56.907972407234034,
        "Longitude(deg)": -127.20987012236752,
        "Mean Anomaly(deg)": 105.0029676000801,
        "RAAN(deg)": 214.99537945946287,
        "Satellite Name": "Test1 952",
        "Satellite Number": 952,
        "Semi-Major Axis(m)": 6980739.136638005,
        "Time(s)": 110
    },
    {
        "Altitude(m)": 611426.541633653,
        "Argument of Periapsis(deg)": 0.0012502735095955685,
        "Eccentricity": 0.0,
        "Inclination(deg)": 60.0,
        "Latitude(deg)": 56.64997468009456,
        "Longitude(deg)": -126.22549295036278,
        "Mean Anomaly(deg)": 105.62307374554193,
        "RAAN(deg)": 214.9949594103231,
        "Satellite Name": "Test1 952",
        "Satellite Number": 952,
        "Semi-Major Axis(m)": 6980739.136638005,
        "Time(s)": 120
    },
    {
        "Altitude(m)": 611367.7068841626,
        "Argument of Periapsis(deg)": 0.0013544629687285324,
        "Eccentricity": 0.0,
        "Inclination(deg)": 60.0,
        "Latitude(deg)": 56.383633258452534,
        "Longitude(deg)": -125.2552425944896,
        "Mean Anomaly(deg)": 106.24317989100376,
        "RAAN(deg)": 214.99453936118334,
        "Satellite Name": "Test1 952",
        "Satellite Number": 952,
        "Semi-Major Axis(m)": 6980739.136638005,
        "Time(s)": 130
    },
    {
        "Altitude(m)": 611306.8952738233,
        "Argument of Periapsis(deg)": 0.0014586524278614966,
        "Eccentricity": 0.0,
        "Inclination(deg)": 60.0,
        "Latitude(deg)": 56.10914530424454,
        "Longitude(deg)": -124.29921583011519,
        "Mean Anomaly(deg)": 106.8632860364656,
        "RAAN(deg)": 214.99411931204364,
        "Satellite Name": "Test1 952",
        "Satellite Number": 952,
        "Semi-Major Axis(m)": 6980739.136638005,
        "Time(s)": 140
    },
    {
        "Altitude(m)": 611244.1421387601,
        "Argument of Periapsis(deg)": 0.0015628418869944607,
        "Eccentricity": 0.0,
        "Inclination(deg)": 60.0,
        "Latitude(deg)": 55.82670760410875,
        "Longitude(deg)": -123.35747880010817,
        "Mean Anomaly(deg)": 107.48339218192746,
        "RAAN(deg)": 214.99369926290385,
        "Satellite Name": "Test1 952",
        "Satellite Number": 952,
        "Semi-Major Axis(m)": 6980739.136638005,
        "Time(s)": 150
    },
    {
        "Altitude(m)": 611179.483978269,
        "Argument of Periapsis(deg)": 0.0016670313461274247,
        "Eccentricity": 0.0,
        "Inclination(deg)": 60.0,
        "Latitude(deg)": 55.53651612710481,
        "Longitude(deg)": -122.4300681836699,
        "Mean Anomaly(deg)": 108.10349832738929,
        "RAAN(deg)": 214.99327921376414,
        "Satellite Name": "Test1 952",
        "Satellite Number": 952,
        "Semi-Major Axis(m)": 6980739.136638005,
        "Time(s)": 160
    },
    {
        "Altitude(m)": 611112.9584374466,
        "Argument of Periapsis(deg)": 0.0017712208052603888,
        "Eccentricity": 0.0,
        "Inclination(deg)": 60.0,
        "Latitude(deg)": 55.23876561765415,
        "Longitude(deg)": -121.51699391378905,
        "Mean Anomaly(deg)": 108.72360447285114,
        "RAAN(deg)": 214.99285916462438,
        "Satellite Name": "Test1 952",
        "Satellite Number": 952,
        "Semi-Major Axis(m)": 6980739.136638005,
        "Time(s)": 170
    },
    {
        "Altitude(m)": 611044.6042892518,
        "Argument of Periapsis(deg)": 0.001875410264393353,
        "Eccentricity": 0.0,
        "Inclination(deg)": 60.0,
        "Latitude(deg)": 54.93364922342956,
        "Longitude(deg)": -120.6182403995876,
        "Mean Anomaly(deg)": 109.34371061831297,
        "RAAN(deg)": 214.99243911548464,
        "Satellite Name": "Test1 952",
        "Satellite Number": 952,
        "Semi-Major Axis(m)": 6980739.136638005,
        "Time(s)": 180
    },
    {
        "Altitude(m)": 610974.4614160119,
        "Argument of Periapsis(deg)": 0.0019795997235263173,
        "Eccentricity": 0.0,
        "Inclination(deg)": 60.0,
        "Latitude(deg)": 54.621358157610324,
        "Longitude(deg)": -119.73376775021345,
        "Mean Anomaly(deg)": 109.96381676377476,
        "RAAN(deg)": 214.99201906634488,
        "Satellite Name": "Test1 952",
        "Satellite Number": 952,
        "Semi-Major Axis(m)": 6980739.136638005,
        "Time(s)": 190
    }
]